GPS BIII-10 (PRN 13)    
1 68791U 26087A   26133.55555556  .00000040  00000+0  00000+0 0  9992
2 68791  54.9658 209.1573 0021622 106.2051 285.2407  2.00569311   145
